OBJECT_NAME,OBJECT_ID,EPOCH,MEAN_MOTION,ECCENTRICITY,INCLINATION,RA_OF_ASC_NODE,ARG_OF_PERICENTER,MEAN_ANOMALY,EPHEMERIS_TYPE,CLASSIFICATION_TYPE,NORAD_CAT_ID,ELEMENT_SET_NO,REV_AT_EPOCH,BSTAR,MEAN_MOTION_DOT,MEAN_MOTION_DDOT
INNOSAT 3 (RS92S0),2025-155U,2026-06-15T22:50:05.397504,15.43749158,.00062915,97.4486,138.4179,154.3912,205.7648,0,U,64894,999,8077,.69704954E-3,.3152E-3,0
KNACKSAT-2,1998-067XZ,2026-06-15T14:53:57.341184,15.59856550,.00093464,51.6314,302.3560,207.9097,152.1396,0,U,67683,999,2003,.51195506E-3,.41746E-3,0
