INNOSAT 3 (RS92S0)      
1 64894U 25155U   26166.95145136  .00031520  00000+0  69705-3 0  9994
2 64894  97.4486 138.4179 0006291 154.3912 205.7648 15.43749158 80778
KNACKSAT-2              
1 67683U 98067XZ  26166.62080256  .00041746  00000+0  51196-3 0  9996
2 67683  51.6314 302.3560 0009346 207.9097 152.1396 15.59856550 20038
